OBJECT_NAME,OBJECT_ID,EPOCH,MEAN_MOTION,ECCENTRICITY,INCLINATION,RA_OF_ASC_NODE,ARG_OF_PERICENTER,MEAN_ANOMALY,EPHEMERIS_TYPE,CLASSIFICATION_TYPE,NORAD_CAT_ID,ELEMENT_SET_NO,REV_AT_EPOCH,BSTAR,MEAN_MOTION_DOT,MEAN_MOTION_DDOT
GLOBALSTAR M069,2007-020C,2026-06-30T12:40:50.916576,12.23471685,.00020287,52.0002,214.3659,177.4741,335.0354,0,U,31573,999,88043,.23114651E-3,-.68E-6,0
GLOBALSTAR M072,2007-020D,2026-06-30T17:12:43.030080,11.91658425,.0001544,51.9938,64.2251,5.2903,28.6427,0,U,31574,999,87659,.18142E-3,-.71E-6,0
GLOBALSTAR M066,2007-048C,2026-06-29T19:40:04.679904,12.30387146,.0005654,51.9601,21.6487,70.5663,303.1764,0,U,32265,999,86178,-.17873346E-4,-.97E-6,0
GLOBALSTAR M079,2010-054A,2026-06-29T22:53:02.120928,12.62266282,.00009712,52.0045,69.8078,50.9582,322.1092,0,U,37188,999,72416,.70790603E-4,-.91E-6,0
GLOBALSTAR M074,2010-054B,2026-06-30T14:41:10.391712,12.62261924,.0000766,52.0027,67.0661,71.8333,294.8986,0,U,37189,999,72485,.12638E-3,-.81E-6,0
GLOBALSTAR M076,2010-054C,2026-06-30T17:22:03.440352,12.62261939,.0000993,52.0035,66.9306,67.3661,327.2065,0,U,37190,999,72458,.66671E-4,-.92E-6,0
GLOBALSTAR M077,2010-054D,2026-06-30T05:33:21.281184,11.67547986,.00025227,51.9933,146.1863,196.5323,268.4026,0,U,37191,999,72266,-.27181343E-3,-.93E-6,0
GLOBALSTAR M075,2010-054E,2026-06-30T19:29:56.067072,12.62267481,.0000486,51.9944,108.7067,41.2293,337.2786,0,U,37192,999,72366,.15182E-4,-.101E-5,0
GLOBALSTAR M073,2010-054F,2026-06-30T11:50:35.190240,12.62266772,.00010926,52.0077,23.7889,73.0755,293.5896,0,U,37193,999,72561,.10525458E-3,-.85E-6,0
GLOBALSTAR M083,2011-033A,2026-06-30T18:32:48.916032,12.62263728,.000095,51.9878,331.1485,88.0049,49.9446,0,U,37739,999,69466,.10564E-3,-.85E-6,0
GLOBALSTAR M088,2011-033B,2026-06-30T12:03:57.794400,12.62269094,.00003942,52.0197,238.4325,146.6106,322.1682,0,U,37740,999,69017,.17393755E-3,-.73E-6,0
GLOBALSTAR M091,2011-033C,2026-06-30T08:32:45.097728,12.62264150,.00000354,51.9967,201.8237,324.1113,138.6403,0,U,37741,999,69094,.42867945E-4,-.96E-6,0
GLOBALSTAR M085,2011-033D,2026-06-30T06:21:29.822400,12.62264202,.000042,52.0103,153.4032,6.2720,102.1410,0,U,37742,999,69144,-.80968587E-4,-.118E-5,0
GLOBALSTAR M081,2011-033E,2026-06-30T03:02:38.359968,12.62265317,.00003074,51.9933,156.2450,36.7140,43.6014,0,U,37743,999,69157,-.63496829E-4,-.115E-5,0
GLOBALSTAR M089,2011-033F,2026-06-30T18:54:24.630048,12.62267390,.0000544,51.9924,108.3890,79.7126,306.5158,0,U,37744,999,69250,-.15404E-4,-.107E-5,0
GLOBALSTAR M084,2011-080A,2026-06-30T19:51:47.592288,12.62267682,.0001081,52.0026,335.7560,108.1842,39.1325,0,U,38040,999,67048,.32681E-4,-.98E-6,0
GLOBALSTAR M080,2011-080B,2026-06-30T04:05:50.696160,12.62265245,.00004288,52.0089,339.4786,77.2860,93.5785,0,U,38041,999,67052,.8755075E-5,-.102E-5,0
GLOBALSTAR M082,2011-080C,2026-06-30T17:38:42.643392,12.62263785,.0000421,52.0084,293.2634,108.7965,38.2241,0,U,38042,999,67130,.10926E-3,-.84E-6,0
GLOBALSTAR M092,2011-080D,2026-06-30T14:31:22.544256,12.62267234,.0000842,52.0098,24.0564,82.9609,311.7854,0,U,38043,999,66974,.82738E-4,-.89E-6,0
GLOBALSTAR M090,2011-080E,2026-06-30T16:22:55.490016,12.62252712,.0000553,52.0130,287.3838,105.3746,41.4336,0,U,38044,999,67141,.12435E-3,-.81E-6,0
GLOBALSTAR M086,2011-080F,2026-06-30T16:59:34.171296,12.62287392,.0001684,51.9905,287.2137,89.9024,74.7360,0,U,38045,999,67136,.21299E-3,-.66E-6,0
GLOBALSTAR M097,2013-005A,2026-06-30T11:10:50.583072,12.62271297,.00001348,52.0014,202.9153,64.2931,295.7949,0,U,39072,999,61858,.68022041E-4,-.92E-6,0
GLOBALSTAR M093,2013-005B,2026-06-30T08:38:10.914720,12.62266180,.0000288,52.0072,196.5889,35.2496,324.8389,0,U,39073,999,61852,.5003995E-4,-.95E-6,0
GLOBALSTAR M094,2013-005C,2026-06-30T20:02:07.978848,12.62268430,.0000736,51.9953,109.2457,35.1612,324.9303,0,U,39074,999,62019,-.63611E-4,-.115E-5,0
GLOBALSTAR M096,2013-005D,2026-06-30T05:09:23.554080,12.62265664,.00003553,52.0047,159.9450,9.2279,350.8594,0,U,39075,999,61903,-.10507142E-3,-.123E-5,0
GLOBALSTAR M078,2013-005E,2026-06-30T12:06:43.419744,12.62260150,.00005399,51.9861,243.0563,287.1640,72.9167,0,U,39076,999,61769,.51406491E-3,-.12E-6,0
GLOBALSTAR M095,2013-005F,2026-06-30T12:45:11.395296,12.62263818,.0000075,52.0067,240.5978,14.7808,345.3061,0,U,39077,999,61755,.21929E-3,-.64E-6,0
GLOBALSTAR M087,2022-064A,2026-06-30T13:04:09.856128,12.62269254,.00009164,52.0010,21.7870,64.3797,295.7165,0,U,52888,999,19282,.29216741E-4,-.99E-6,0
